     2.10           NAVIGATION                              RINEX VERSION / TYPE
fic2rin                                 08/15/2008 06:06:08 PGM / RUN BY / DATE
                                                            END OF HEADER
 5 08  8 14 22  0  0.0  .592118129134D-03 -.276259015664D-09  .277555756156D-16
     .740000000000D+02 -.116062500000D+03  .478448500729D-08 -.220131894753D+01
    -.603310763836D-05  .918637367431D-02  .837445259094D-05  .515371488571D+04
     .424800000000D+06  .130385160446D-06  .255430762121D+01  .372529029846D-08
     .943580973238D+00  .205125000000D+03  .125815281105D+01 -.800319050787D-08
     .664313385605D-10  .100000000000D+01  .149200000000D+04  .000000000000D+00
     .485000000000D+01  .630000000000D+02 -.419095158577D-08  .740000000000D+02
     .417606000000D+06  .400000000000D+01
 6 08  8 14 22  0  0.0  .167020130903D-03  .102318153949D-11  .000000000000D+00
     .570000000000D+02  .155937500000D+02  .527271962994D-08 -.231863184780D+01
     .908970832825D-06  .582488975488D-02  .891275703907D-05  .515372164536D+04
     .424800000000D+06  .558793544769D-07 -.263178296832D+01  .124797224998D-06
     .933790366197D+00  .189812500000D+03 -.160353769737D+01 -.813855328913D-08
     .640740975148D-09  .100000000000D+01  .149200000000D+04  .000000000000D+00
     .240000000000D+01  .000000000000D+00 -.465661287308D-08  .570000000000D+02
     .417606000000D+06  .400000000000D+01
 7 08  8 14 22  0  0.0  .845687463880D-05  .397903932026D-11  .000000000000D+00
     .790000000000D+02 -.373125000000D+02  .470055293975D-08  .724509622848D-01
    -.195018947124D-05  .208377453964D-02  .931322574615D-06  .515369913101D+04
     .424800000000D+06  .707805156708D-07  .159933570511D+01  .242143869400D-07
     .963129774907D+00  .360875000000D+03  .267096894947D+01 -.845999524990D-08
     .178578867098D-11  .100000000000D+01  .149200000000D+04  .000000000000D+00
     .240000000000D+01  .000000000000D+00 -.107102096081D-07  .790000000000D+02
     .417606000000D+06  .400000000000D+01
 8 08  8 14 22  0  0.0 -.165861099958D-03 -.147792889038D-11  .000000000000D+00
     .950000000000D+02 -.468750000000D+02  .418267422517D-08 -.736180111805D+00
    -.263378024101D-05  .104600460036D-01  .135228037834D-05  .515372406197D+04
     .424800000000D+06  .856816768646D-07  .165379130186D+01 -.214204192162D-06
     .984304612947D+00  .361875000000D+03  .289280674085D+01 -.821212778237D-08
     .575023952056D-10  .100000000000D+01  .149200000000D+04  .000000000000D+00
     .485000000000D+01  .000000000000D+00 -.372529029846D-08  .950000000000D+02
     .417606000000D+06  .400000000000D+01
 9 08  8 14 22  0  0.0  .100620090961D-04  .181898940355D-11  .000000000000D+00
     .182000000000D+03 -.349062500000D+02  .462126392276D-08 -.111480421728D+01
    -.125728547573D-05  .201797127957D-01  .185705721378D-05  .515365897369D+04
     .424800000000D+06 -.145286321640D-06  .156321581154D+01  .385567545891D-06
     .972139796656D+00  .353000000000D+03  .143257586216D+01 -.853035532354D-08
     .403588239642D-10  .100000000000D+01  .149200000000D+04  .000000000000D+00
     .340000000000D+01  .000000000000D+00 -.558793544769D-08  .182000000000D+03
     .417606000000D+06  .400000000000D+01
11 08  8 14 22  0  0.0  .216509215534D-04 -.682121026330D-12  .000000000000D+00
     .107000000000D+03  .384375000000D+01  .678206821465D-08 -.308859106136D+00
     .135973095894D-06  .831125455443D-02  .390410423279D-05  .515363174057D+04
     .424800000000D+06  .167638063431D-07 -.173804791649D+01  .124797224998D-06
     .890346540039D+00  .262875000000D+03  .602755677799D+00 -.923859911045D-08
    -.158578033983D-09  .100000000000D+01  .149200000000D+04  .000000000000D+00
     .240000000000D+01  .000000000000D+00 -.116415321827D-07  .107000000000D+03
     .417606000000D+06  .400000000000D+01
12 08  8 14 22  0  0.0 -.354506541044D-03  .113686837722D-11  .000000000000D+00
     .780000000000D+02 -.101375000000D+03  .440554065131D-08  .125836561735D+00
    -.529736280441D-05  .322511780541D-02  .941939651966D-05  .515355378342D+04
     .424800000000D+06  .186264514923D-08  .264948692935D+01 -.409781932831D-07
     .964834146152D+00  .201281250000D+03 -.878630333429D+00 -.794997400547D-08
     .514307137242D-10  .100000000000D+01  .149200000000D+04  .000000000000D+00
     .240000000000D+01  .000000000000D+00 -.116415321827D-07  .780000000000D+02
     .417606000000D+06  .400000000000D+01
13 08  8 14 22  0  0.0  .267643015832D-03  .136424205266D-11  .000000000000D+00
     .960000000000D+02  .116125000000D+03  .352728978292D-08  .223088282932D+01
     .601820647717D-05  .377899454907D-02  .599026679993D-05  .515359318542D+04
     .424800000000D+06  .465661287308D-07  .600978816037D+00 -.111758708954D-07
     .995645610328D+00  .279718750000D+03  .153361133524D+01 -.766567644905D-08
     .340728478423D-09  .100000000000D+01  .149200000000D+04  .000000000000D+00
     .240000000000D+01  .000000000000D+00 -.107102096081D-07  .960000000000D+02
     .417606000000D+06  .400000000000D+01
14 08  8 14 22  0  0.0 -.232128426433D-03  .454747350886D-11  .000000000000D+00
     .490000000000D+02  .125343750000D+03  .366050961778D-08  .202934369045D+01
     .656209886074D-05  .401205010712D-02  .580400228500D-05  .515372710991D+04
     .424800000000D+06 -.428408384323D-07  .583217355012D+00 -.121071934700D-06
     .989349190434D+00  .279875000000D+03 -.219097672675D+01 -.782175437889D-08
     .363586573412D-09  .100000000000D+01  .149200000000D+04  .000000000000D+00
     .240000000000D+01  .000000000000D+00 -.931322574615D-08  .490000000000D+02
     .417606000000D+06  .400000000000D+01
15 08  8 14 22  0  0.0 -.160014722496D-03 -.648014975013D-11  .000000000000D+00
     .250000000000D+02  .114656250000D+03  .435839583039D-08  .292453168472D+01
     .595301389694D-05  .757099827752D-03  .598095357418D-05  .515369219971D+04
     .424800000000D+06 -.186264514923D-07  .539711991205D+00 -.186264514923D-08
     .957688933874D+00  .262156250000D+03 -.123072062765D+01 -.806247869174D-08
     .251439044874D-09  .100000000000D+01  .149200000000D+04  .000000000000D+00
     .240000000000D+01  .000000000000D+00 -.125728547573D-07  .250000000000D+02
     .417606000000D+06  .400000000000D+01
16 08  8 14 22  0  0.0  .112164765596D-03 -.193267624127D-11  .000000000000D+00
     .790000000000D+02 -.122187500000D+03  .424660545959D-08 -.245412819512D+01
    -.612437725067D-05  .474494975060D-02  .104736536741D-04  .515365844345D+04
     .424800000000D+06 -.108033418655D-06  .266598178274D+01  .465661287308D-07
     .966485638761D+00  .182156250000D+03 -.423631425332D+00 -.776032324861D-08
     .539308178636D-10  .100000000000D+01  .149200000000D+04  .000000000000D+00
     .240000000000D+01  .000000000000D+00 -.977888703346D-08  .790000000000D+02
     .417606000000D+06  .400000000000D+01
17 08  8 14 22  0  0.0  .389385968447D-04 -.113686837722D-12  .000000000000D+00
     .600000000000D+01  .150937500000D+02  .462697844651D-08  .260829576151D+01
     .795349478722D-06  .377126678359D-02  .888481736183D-05  .515357943535D+04
     .424800000000D+06 -.111758708954D-06 -.257641965870D+01 -.689178705215D-07
     .959833703441D+00  .208406250000D+03 -.277692988047D+01 -.786854204207D-08
     .521807449660D-09  .100000000000D+01  .149200000000D+04  .000000000000D+00
     .240000000000D+01  .000000000000D+00 -.977888703346D-08  .600000000000D+01
     .417606000000D+06  .400000000000D+01
18 08  8 14 22  0  0.0 -.144987367094D-03  .420641299570D-11  .000000000000D+00
     .101000000000D+03  .294375000000D+02  .441554106787D-08 -.228823909418D+01
     .155530869961D-05  .976661604363D-02  .106431543827D-04  .515371043396D+04
     .424800000000D+06  .447034835815D-07 -.459904972111D+00 -.124797224998D-06
     .946739637197D+00  .167093750000D+03 -.248073705700D+01 -.772532179066D-08
    -.376444251843D-09  .100000000000D+01  .149200000000D+04  .000000000000D+00
     .240000000000D+01  .000000000000D+00 -.107102096081D-07  .101000000000D+03
     .417606000000D+06  .400000000000D+01
19 08  8 14 22  0  0.0  .346917659044D-04  .341060513165D-12  .000000000000D+00
     .101000000000D+03  .180937500000D+02  .485948813147D-08  .216344004858D+01
     .117346644402D-05  .487813528161D-02  .849552452564D-05  .515371788406D+04
     .424800000000D+06  .197440385818D-06 -.251956738081D+01  .856816768646D-07
     .957559734801D+00  .211000000000D+03 -.534405441663D+00 -.804069206996D-08
     .468233789531D-09  .100000000000D+01  .149200000000D+04  .000000000000D+00
     .240000000000D+01  .000000000000D+00 -.149011611938D-07  .101000000000D+03
     .417606000000D+06  .400000000000D+01
20 08  8 14 22  0  0.0  .107451342046D-03 -.102318153949D-11  .000000000000D+00
     .300000000000D+01  .213437500000D+02  .448804408791D-08 -.223893440127D+01
     .114925205708D-05  .353358138818D-02  .112168490887D-04  .515379437256D+04
     .424800000000D+06  .521540641785D-07 -.513536679733D+00 -.838190317154D-07
     .946229947761D+00  .158000000000D+03  .137756006872D+01 -.781889711702D-08
    -.609311094539D-09  .100000000000D+01  .149200000000D+04  .000000000000D+00
     .240000000000D+01  .000000000000D+00 -.651925802231D-08  .300000000000D+01
     .417606000000D+06  .400000000000D+01
21 08  8 14 22  0  0.0  .544376671314D-04 -.136424205266D-11  .000000000000D+00
     .400000000000D+02 -.104687500000D+02  .546379901773D-08 -.110209031371D+01
    -.633299350739D-06  .142333612312D-01  .491179525852D-05  .515368586731D+04
     .424800000000D+06  .324100255966D-06 -.151844962154D+01 -.106170773506D-06
     .935257361429D+00  .269656250000D+03 -.268731110493D+01 -.841320758672D-08
    -.298941023522D-09  .100000000000D+01  .149200000000D+04  .000000000000D+00
     .240000000000D+01  .000000000000D+00 -.121071934700D-07  .400000000000D+02
     .417606000000D+06  .400000000000D+01
